IRIDIUM 65 [+]          
1 25288U 98021D   16098.45848659  .00000190  00000-0  60895-4 0  9990
2 25288  86.3980  46.0086 0002158  79.9856 280.1583 14.34222901942566
IRIDIUM 66 [+]          
1 25289U 98021E   16098.41766015  .00000194  00000-0  62379-4 0  9995
2 25289  86.3979  45.9327 0002262  82.0304  34.6671 14.34222664942555
IRIDIUM 67 [+]          
1 25290U 98021F   16098.40140073  .00000188  00000-0  60170-4 0  9996
2 25290  86.3980  46.0695 0002230  84.0299 276.1150 14.34222942942564
IRIDIUM 68 [+]          
1 25291U 98021G   16098.40775016  .00000192  00000-0  61569-4 0  9996
2 25291  86.3982  46.1772 0002317  82.4707 277.6752 14.34222820942532
IRIDIUM 69 [-]          
1 25319U 98026A   16098.48990119  .00000188  00000-0  55003-4 0  9994
2 25319  86.3977  69.0112 0000291  88.2528 271.8704 14.38575585940391
IRIDIUM 71 [-]          
1 25320U 98026B   16098.46640314  .00000161  00000-0  45758-4 0  9990
2 25320  86.3966  65.1201 0002396  35.7991 324.3367 14.38996213940806
IRIDIUM 70 [+]          
1 25342U 98032A   16098.38534675  .00000195  00000-0  62628-4 0  9996
2 25342  86.3986  46.4076 0002266  80.7979  32.8732 14.34222949936633
IRIDIUM 72 [+]          
1 25343U 98032B   16098.37242713  .00000180  00000-0  57351-4 0  9996
2 25343  86.3981  46.0534 0002210  82.7402  29.6823 14.34222621936638
IRIDIUM 73 [-]          
1 25344U 98032C   16098.31712862  .00000222  00000-0  53258-4 0  9997
2 25344  86.4466  27.1306 0002964  85.7772 274.3771 14.48918950944434
IRIDIUM 74 [S]          
1 25345U 98032D   16098.38514856  .00000218  00000-0  59156-4 0  9996
2 25345  86.4491  46.3817 0002113  87.3481  30.2657 14.42952150939906
IRIDIUM 75 [+]          
1 25346U 98032E   16098.45365311  .00000190  00000-0  60723-4 0  9996
2 25346  86.3984  46.2563 0002237  83.3410  55.4945 14.34222846937219
IRIDIUM 3 [+]           
1 25431U 98048A   16098.50807582  .00000045  00000-0  90436-5 0  9999
2 25431  86.3939  77.8441 0002244  82.7922  56.7587 14.34218732923162
IRIDIUM 76 [+]          
1 25432U 98048B   16098.52627846  .00000011  00000-0 -32237-5 0  9994
2 25432  86.3937  77.6047 0002399  85.3604  50.3362 14.34216729923152
IRIDIUM 82 [+]          
1 25467U 98051A   16098.32976278  .00000271  00000-0  89844-4 0  9992
2 25467  86.4000 204.2933 0002165 106.1188 254.0246 14.34226030924144
IRIDIUM 81 [+]          
1 25468U 98051B   16098.53273836  .00000222  00000-0  72318-4 0  9990
2 25468  86.4014 203.8491 0002195 100.4224 259.7220 14.34220290920394
IRIDIUM 80 [+]          
1 25469U 98051C   16098.45297969  .00000222  00000-0  72363-4 0  9995
2 25469  86.4018 204.1488 0002323 100.9573 305.9343 14.34224707920380
IRIDIUM 77 [+]          
1 25471U 98051E   16098.39329505  .00000234  00000-0  76307-4 0  9998
2 25471  86.4008 203.7867 0002273  95.2601 330.9580 14.34225103925578
IRIDIUM 2 [-]           
1 25527U 98066A   16098.55505585  .00002334  00000-0  12328-3 0  9993
2 25527  85.5268 289.0636 0007506 244.6906 115.3556 15.14951680951887
IRIDIUM 86 [+]          
1 25528U 98066B   16098.26927524  .00000229  00000-0  74832-4 0  9993
2 25528  86.4001 172.0557 0002244  91.3547 268.7906 14.34219468916883
IRIDIUM 84 [+]          
1 25530U 98066D   16098.30098325  .00000237  00000-0  77576-4 0  9996
2 25530  86.4002 172.1997 0002331  98.5191 261.6269 14.34219955914521
IRIDIUM 83 [+]          
1 25531U 98066E   16098.33269931  .00000228  00000-0  74469-4 0  9991
2 25531  86.4005 172.2939 0002327  97.4947 262.6513 14.34219631911884
IRIDIUM 20 [+]          
1 25577U 98074A   16098.46194450  .00000015  00000-0 -16390-5 0  9992
2 25577  86.3934  77.5593 0002164  82.1114 278.0327 14.34216639905986
IRIDIUM 11 [+]          
1 25578U 98074B   16098.49694356  .00000005  00000-0 -51477-5 0  9990
2 25578  86.3934  77.7505 0002133  86.5232  28.6636 14.34217135914958
IRIDIUM 14 [S]          
1 25777U 99032A   16098.39792395  .00000181  00000-0  57586-4 0  9997
2 25777  86.3982  46.1167 0002211  79.8285  33.2666 14.34222463892215
IRIDIUM 21 [+]          
1 25778U 99032B   16098.41408604  .00000189  00000-0  60553-4 0  9994
2 25778  86.3982  46.1340 0002348  85.6726 274.4738 14.34222907885657
IRIDIUM 91 [+]          
1 27372U 02005A   16098.54410575  .00000084  00000-0  22790-4 0  9999
2 27372  86.3940 109.9303 0002100  95.6868  15.8779 14.34213174749189
IRIDIUM 90 [S]          
1 27373U 02005B   16098.27835951  .00000281  00000-0  77981-4 0  9990
2 27373  86.4516 172.2838 0002431  93.8758 266.2721 14.42944427748494
IRIDIUM 94 [S]          
1 27374U 02005C   16098.51747133  .00000007  00000-0 -47426-5 0  9991
2 27374  86.3934  77.8631 0003085  71.4029  51.4423 14.34214838753506
IRIDIUM 95 [+]          
1 27375U 02005D   16098.49070720  .00000018  00000-0 -76237-6 0  9995
2 27375  86.3941 109.7352 0002310  85.3598 274.7861 14.34219410748461
IRIDIUM 96 [S]          
1 27376U 02005E   16098.53854522  .00000125  00000-0  37431-4 0  9990
2 27376  86.3993 141.2061 0003689 103.8630 256.2976 14.34219873753674
IRIDIUM 97 [+]          
1 27450U 02031A   16098.50680986  .00000047  00000-0  98257-5 0  9997
2 27450  86.3962 141.0559 0002208  99.5332 260.6114 14.34218025727783
IRIDIUM 98 [S]          
1 27451U 02031B   16098.36720510  .00000236  00000-0  77167-4 0  9996
2 27451  86.4009 204.3686 0002212 103.1180 319.2920 14.34223464728835
